{"type": "FeatureCollection", "features": [{"type": "Feature", "properties": {"norad_id": 22675, "name": "COSMOS 2251", "group": "cosmos-2251-debris", "lat": -31.249035823946897, "lon": -78.85626305462952, "alt_km": 773.7031128647586, "timestamp": "2025-12-26T06:43:29.904091+00:00", "meta": {"OBJECT_NAME": "COSMOS 2251", "OBJECT_ID": "1993-036A", "EPOCH": "2025-12-25T20:49:29.768160", "MEAN_MOTION": 14.33208771, "ECCENTRICITY": 0.00244876, "INCLINATION": 74.04, "RA_OF_ASC_NODE": 291.8971, "ARG_OF_PERICENTER": 10.6142, "MEAN_ANOMALY": 349.5521, "EPHEMERIS_TYPE": 0, "CLASSIFICATION_TYPE": "U", "NORAD_CAT_ID": 22675, "ELEMENT_SET_NO": 999, "REV_AT_EPOCH": 69961, "BSTAR": 6.230369e-05, "MEAN_MOTION_DOT": 1.46e-06, "MEAN_MOTION_DDOT": 0}, "tle": {"line1": "1 22675U 93036A   25359.86770565  .00000146  00000+0  62304-4 0  9990", "line2": "2 22675  74.0400 291.8971 0024487  10.6142 349.5521 14.33208771699611"}}, "geometry": {"type": "Point", "coordinates": [-78.85626305462952, -31.249035823946897]}}, {"type": "Feature", "properties": {"norad_id": 33757, "name": "COSMOS 2251 DEB", "group": "cosmos-2251-debris", "lat": -22.98887880504377, "lon": -68.08344764066086, "alt_km": 778.081420373047, "timestamp": "2025-12-26T06:43:29.904116+00:00", "meta": {"OBJECT_NAME": "COSMOS 2251 DEB", "OBJECT_ID": "1993-036E", "EPOCH": "2025-12-25T21:05:13.970688", "MEAN_MOTION": 14.32584381, "ECCENTRICITY": 0.00156645, "INCLINATION": 74.0376, "RA_OF_ASC_NODE": 299.6238, "ARG_OF_PERICENTER": 310.94, "MEAN_ANOMALY": 114.917, "EPHEMERIS_TYPE": 0, "CLASSIFICATION_TYPE": "U", "NORAD_CAT_ID": 33757, "ELEMENT_SET_NO": 999, "REV_AT_EPOCH": 88184, "BSTAR": 5.2651677e-05, "MEAN_MOTION_DOT": 1.17e-06, "MEAN_MOTION_DDOT": 0}, "tle": {"line1": "1 33757U 93036E   25359.87863392  .00000117  00000+0  52652-4 0  9998", "line2": "2 33757  74.0376 299.6238 0015664 310.9400 114.9170 14.32584381881843"}}, "geometry": {"type": "Point", "coordinates": [-68.08344764066086, -22.98887880504377]}}, {"type": "Feature", "properties": {"norad_id": 33758, "name": "COSMOS 2251 DEB", "group": "cosmos-2251-debris", "lat": 48.170367143025175, "lon": -9.13955006750694, "alt_km": 722.6674400261172, "timestamp": "2025-12-26T06:43:29.904131+00:00", "meta": {"OBJECT_NAME": "COSMOS 2251 DEB", "OBJECT_ID": "1993-036F", "EPOCH": "2025-12-25T22:25:36.429888", "MEAN_MOTION": 14.51669533, "ECCENTRICITY": 0.00170789, "INCLINATION": 74.0267, "RA_OF_ASC_NODE": 190.1757, "ARG_OF_PERICENTER": 255.9995, "MEAN_ANOMALY": 227.079, "EPHEMERIS_TYPE": 0, "CLASSIFICATION_TYPE": "U", "NORAD_CAT_ID": 33758, "ELEMENT_SET_NO": 999, "REV_AT_EPOCH": 88496, "BSTAR": 0.00077681591, "MEAN_MOTION_DOT": 3.095e-05, "MEAN_MOTION_DDOT": 0}, "tle": {"line1": "1 33758U 93036F   25359.93444942  .00003095  00000+0  77682-3 0  9999", "line2": "2 33758  74.0267 190.1757 0017078 255.9995 227.0790 14.51669533884966"}}, "geometry": {"type": "Point", "coordinates": [-9.13955006750694, 48.170367143025175]}}, {"type": "Feature", "properties": {"norad_id": 33760, "name": "COSMOS 2251 DEB", "group": "cosmos-2251-debris", "lat": 13.467839592587994, "lon": -99.46135509163334, "alt_km": 759.9629729888093, "timestamp": "2025-12-26T06:43:29.904143+00:00", "meta": {"OBJECT_NAME": "COSMOS 2251 DEB", "OBJECT_ID": "1993-036H", "EPOCH": "2025-12-25T20:58:10.368768", "MEAN_MOTION": 14.35681172, "ECCENTRICITY": 0.00204615, "INCLINATION": 74.0318, "RA_OF_ASC_NODE": 257.3524, "ARG_OF_PERICENTER": 352.6469, "MEAN_ANOMALY": 81.3851, "EPHEMERIS_TYPE": 0, "CLASSIFICATION_TYPE": "U", "NORAD_CAT_ID": 33760, "ELEMENT_SET_NO": 999, "REV_AT_EPOCH": 88313, "BSTAR": 0.00010604777, "MEAN_MOTION_DOT": 2.81e-06, "MEAN_MOTION_DDOT": 0}, "tle": {"line1": "1 33760U 93036H   25359.87373112  .00000281  00000+0  10605-3 0  9991", "line2": "2 33760  74.0318 257.3524 0020461 352.6469  81.3851 14.35681172883137"}}, "geometry": {"type": "Point", "coordinates": [-99.46135509163334, 13.467839592587994]}}, {"type": "Feature", "properties": {"norad_id": 33761, "name": "COSMOS 2251 DEB", "group": "cosmos-2251-debris", "lat": -72.15299962737936, "lon": 164.27534367716083, "alt_km": 742.1425704158901, "timestamp": "2025-12-26T06:43:29.904154+00:00", "meta": {"OBJECT_NAME": "COSMOS 2251 DEB", "OBJECT_ID": "1993-036J", "EPOCH": "2025-12-25T18:07:22.971936", "MEAN_MOTION": 14.42579332, "ECCENTRICITY": 0.00233359, "INCLINATION": 74.0347, "RA_OF_ASC_NODE": 228.0146, "ARG_OF_PERICENTER": 306.4885, "MEAN_ANOMALY": 125.9248, "EPHEMERIS_TYPE": 0, "CLASSIFICATION_TYPE": "U", "NORAD_CAT_ID": 33761, "ELEMENT_SET_NO": 999, "REV_AT_EPOCH": 88422, "BSTAR": 0.00036902596, "MEAN_MOTION_DOT": 1.202e-05, "MEAN_MOTION_DDOT": 0}, "tle": {"line1": "1 33761U 93036J   25359.75512699  .00001202  00000+0  36903-3 0  9997", "line2": "2 33761  74.0347 228.0146 0023335 306.4885 125.9248 14.42579332884225"}}, "geometry": {"type": "Point", "coordinates": [164.27534367716083, -72.15299962737936]}}, {"type": "Feature", "properties": {"norad_id": 33762, "name": "COSMOS 2251 DEB", "group": "cosmos-2251-debris", "lat": -32.50229764164991, "lon": 115.77601730221592, "alt_km": 792.3318921531236, "timestamp": "2025-12-26T06:43:29.904165+00:00", "meta": {"OBJECT_NAME": "COSMOS 2251 DEB", "OBJECT_ID": "1993-036K", "EPOCH": "2025-12-25T21:38:52.736928", "MEAN_MOTION": 14.33667787, "ECCENTRICITY": 0.00155213, "INCLINATION": 74.0423, "RA_OF_ASC_NODE": 285.9633, "ARG_OF_PERICENTER": 344.3979, "MEAN_ANOMALY": 78.3929, "EPHEMERIS_TYPE": 0, "CLASSIFICATION_TYPE": "U", "NORAD_CAT_ID": 33762, "ELEMENT_SET_NO": 999, "REV_AT_EPOCH": 88236, "BSTAR": 5.6167703e-05, "MEAN_MOTION_DOT": 1.3e-06, "MEAN_MOTION_DDOT": 0}, "tle": {"line1": "1 33762U 93036K   25359.90199927  .00000130  00000+0  56168-4 0  9995", "line2": "2 33762  74.0423 285.9633 0015521 344.3979  78.3929 14.33667787882369"}}, "geometry": {"type": "Point", "coordinates": [115.77601730221592, -32.50229764164991]}}, {"type": "Feature", "properties": {"norad_id": 33764, "name": "COSMOS 2251 DEB", "group": "cosmos-2251-debris", "lat": -71.54313693420544, "lon": -171.4199677766353, "alt_km": 760.8741656060283, "timestamp": "2025-12-26T06:43:29.904177+00:00", "meta": {"OBJECT_NAME": "COSMOS 2251 DEB", "OBJECT_ID": "1993-036M", "EPOCH": "2025-12-25T21:27:51.547104", "MEAN_MOTION": 14.39535706, "ECCENTRICITY": 0.00233402, "INCLINATION": 74.0329, "RA_OF_ASC_NODE": 248.3667, "ARG_OF_PERICENTER": 211.5386, "MEAN_ANOMALY": 228.7467, "EPHEMERIS_TYPE": 0, "CLASSIFICATION_TYPE": "U", "NORAD_CAT_ID": 33764, "ELEMENT_SET_NO": 999, "REV_AT_EPOCH": 88346, "BSTAR": 0.00027569822, "MEAN_MOTION_DOT": 8.36e-06, "MEAN_MOTION_DDOT": 0}, "tle": {"line1": "1 33764U 93036M   25359.89434661  .00000836  00000+0  27570-3 0  9999", "line2": "2 33764  74.0329 248.3667 0023340 211.5386 228.7467 14.39535706883462"}}, "geometry": {"type": "Point", "coordinates": [-171.4199677766353, -71.54313693420544]}}, {"type": "Feature", "properties": {"norad_id": 33765, "name": "COSMOS 2251 DEB", "group": "cosmos-2251-debris", "lat": -39.82924930983692, "lon": 131.2560485578297, "alt_km": 534.6346252195026, "timestamp": "2025-12-26T06:43:29.904187+00:00", "meta": {"OBJECT_NAME": "COSMOS 2251 DEB", "OBJECT_ID": "1993-036N", "EPOCH": "2025-12-25T18:42:48.690144", "MEAN_MOTION": 15.10688828, "ECCENTRICITY": 0.00647289, "INCLINATION": 74.0099, "RA_OF_ASC_NODE": 146.1287, "ARG_OF_PERICENTER": 236.254, "MEAN_ANOMALY": 240.631, "EPHEMERIS_TYPE": 0, "CLASSIFICATION_TYPE": "U", "NORAD_CAT_ID": 33765, "ELEMENT_SET_NO": 999, "REV_AT_EPOCH": 89815, "BSTAR": 0.0016473454, "MEAN_MOTION_DOT": 0.00028754, "MEAN_MOTION_DDOT": 0}, "tle": {"line1": "1 33765U 93036N   25359.77973021  .00028754  00000+0  16473-2 0  9993", "line2": "2 33765  74.0099 146.1287 0064728 236.2540 240.6310 15.10688828898157"}}, "geometry": {"type": "Point", "coordinates": [131.2560485578297, -39.82924930983692]}}, {"type": "Feature", "properties": {"norad_id": 33766, "name": "COSMOS 2251 DEB", "group": "cosmos-2251-debris", "lat": 72.3105711994873, "lon": -132.30958456501912, "alt_km": 807.0796662199446, "timestamp": "2025-12-26T06:43:29.904198+00:00", "meta": {"OBJECT_NAME": "COSMOS 2251 DEB", "OBJECT_ID": "1993-036P", "EPOCH": "2025-12-25T18:33:25.189344", "MEAN_MOTION": 14.3497211, "ECCENTRICITY": 0.00648446, "INCLINATION": 74.1862, "RA_OF_ASC_NODE": 111.3113, "ARG_OF_PERICENTER": 311.1353, "MEAN_ANOMALY": 48.4214, "EPHEMERIS_TYPE": 0, "CLASSIFICATION_TYPE": "U", "NORAD_CAT_ID": 33766, "ELEMENT_SET_NO": 999, "REV_AT_EPOCH": 87932, "BSTAR": 0.00055753785, "MEAN_MOTION_DOT": 1.6e-05, "MEAN_MOTION_DDOT": 0}, "tle": {"line1": "1 33766U 93036P   25359.77320821  .00001600  00000+0  55754-3 0  9995", "line2": "2 33766  74.1862 111.3113 0064844 311.1353  48.4214 14.34972110879323"}}, "geometry": {"type": "Point", "coordinates": [-132.30958456501912, 72.3105711994873]}}, {"type": "Feature", "properties": {"norad_id": 33768, "name": "COSMOS 2251 DEB", "group": "cosmos-2251-debris", "lat": -68.88810323681301, "lon": 65.73368554992014, "alt_km": 1070.8024112695457, "timestamp": "2025-12-26T06:43:29.904209+00:00", "meta": {"OBJECT_NAME": "COSMOS 2251 DEB", "OBJECT_ID": "1993-036R", "EPOCH": "2025-12-25T22:54:25.867584", "MEAN_MOTION": 13.58465696, "ECCENTRICITY": 0.03668814, "INCLINATION": 74.0665, "RA_OF_ASC_NODE": 198.5405, "ARG_OF_PERICENTER": 353.4, "MEAN_ANOMALY": 114.3014, "EPHEMERIS_TYPE": 0, "CLASSIFICATION_TYPE": "U", "NORAD_CAT_ID": 33768, "ELEMENT_SET_NO": 999, "REV_AT_EPOCH": 83475, "BSTAR": 0.00032772415, "MEAN_MOTION_DOT": 3.48e-06, "MEAN_MOTION_DDOT": 0}, "tle": {"line1": "1 33768U 93036R   25359.95446606  .00000348  00000+0  32772-3 0  9990", "line2": "2 33768  74.0665 198.5405 0366881 353.4000 114.3014 13.58465696834750"}}, "geometry": {"type": "Point", "coordinates": [65.73368554992014, -68.88810323681301]}}]}